    CK15Y010  2016 05 13.1884  2.515976  0.989440   24.6443  135.8184   71.1635  20210425  12.0  4.0  C/2015 Y1 (LINEAR)                                       MPC109143
    CK16A010  2017 11 22.2544  5.321356  1.000933   10.2117  128.2072  121.2053  20210425   6.0  4.0  C/2016 A1 (PANSTARRS)                                    MPC119995
    PK16A020  2025 10 25.4270  3.466112  0.270579  141.4518  291.6161   26.4053  20210425  11.5  4.0  P/2016 A2 (Christensen)                                  MPC100282
    PK16A030  2017 04 28.7346  4.837340  0.386826  341.0194  187.2487    8.5100  20210425  10.0  4.0  P/2016 A3 (PANSTARRS)                                    MPC115881
    PK16A070  2016 02 23.7519  2.189470  0.564942  352.6179  221.4922   16.6155  20210425  16.0  4.0  P/2016 A7 (PANSTARRS)                                    MPC102098
    CK16A080  2016 08 29.0722  1.891297  0.944945  130.4569  111.3503  148.2430  20210425  12.0  4.0  C/2016 A8 (LINEAR)                                       MPC106345
    CK16B010  2016 12  4.4023  3.217265  0.992638    8.6860  232.0217   50.4423  20210425   9.5  4.0  C/2016 B1 (NEOWISE)                                      MPC107048
    PK16B14A  2021 06 17.3224  1.012822  0.665228  351.8880  180.5269   18.8935  20210425  21.0  4.0  P/2016 BA14 (PANSTARRS)                                  MPC109143
    CK16E010  2017 06  4.4041  8.178413  1.006372   47.4793  233.0911  131.8838  20210425   6.5  4.0  C/2016 E1 (PANSTARRS)                                    MPC110494
    PK16G010  2021 03 22.1097  2.037883  0.211202  111.1998  204.0307   10.9684  20210425  14.0  4.0  P/2016 G1 (PANSTARRS)                                    MPC102098
    PK16J01a  2022 02 20.5321  2.449805  0.228016   46.9436  199.8117   14.3268  20210425  16.5  4.0  P/2016 J1-A (PANSTARRS)                                  MPEC 2017-D91
    PK16J01b  2022 02 19.7419  2.449992  0.227867   46.8347  199.8165   14.3296  20210425  17.0  4.0  P/2016 J1-B (PANSTARRS)                                  MPEC 2017-A77
    CK16K010  2016 07 13.6270  2.296341  1.000262   18.3299  325.6116   90.9455  20210425  13.0  4.0  C/2016 K1 (LINEAR)                                       MPC104792
    CK16M010  2018 08 10.4400  2.213142  0.999796  209.9116   92.2166   90.9795  20210425   5.0  4.0  C/2016 M1 (PANSTARRS)                                    MPC119995
    CK16N040  2017 09 16.7396  3.197493  0.998919   55.9413  353.9931   72.6292  20210425   8.5  4.0  C/2016 N4 (MASTER)                                       MPC115881
    CK16N060  2018 07 17.9647  2.664682  0.998030  162.7022  298.9862  105.8412  20210425   7.0  4.0  C/2016 N6 (PANSTARRS)                                    MPC119995
    PK16P010  2021 06 10.2546  2.270214  0.289095  270.0940  319.5647   24.4563  20210425  15.0  4.0  P/2016 P1 (PANSTARRS)                                    MPC102099
    CK16P040  2016 10 18.7043  5.898852  0.985875  356.2526  320.7239   29.8803  20210425  10.5  4.0  C/2016 P4 (PANSTARRS)                                    MPC102099
    CK16Q020  2021 05 11.8675  7.081855  1.000577   84.5274  322.2958  109.3883  20210425   6.0  4.0  C/2016 Q2 (PANSTARRS)                                    MPC118093
    CK16Q040  2018 01 28.1384  7.086884  0.581744   99.4588  271.2917    7.2554  20210425   7.0  4.0  C/2016 Q4 (Kowalski)                                     MPC102955
    CK16R020  2018 05  9.0659  2.601678  0.994846   33.1479   80.5569   58.2411  20210425   7.0  4.0  C/2016 R2 (PANSTARRS)                                    MPC119995
    CK16R030  2016 10  9.9582  0.453890  0.997704  118.1672   78.7825   53.0296  20210425  18.0  4.0  C/2016 R3 (Borisov)                                      MPC102099
    PK16R040  2016 07 22.3100  2.791983  0.476331  174.0379  168.2676   10.8745  20210425  12.5  4.0  P/2016 R4 (Gibbs)                                        MPC109144
    PK16S010  2017 03 15.9607  2.400964  0.709970  273.2795  227.5594   94.6817  20210425  12.0  4.0  P/2016 S1 (PANSTARRS)                                    MPC105543
    CK16T010  2017 02  1.4243  2.305714  0.981601  137.4869   56.3444  129.8508  20210425  14.5  4.0  C/2016 T1 (Matheny)                                      MPC105238
    CK16T020  2016 12 29.4691  1.903232  0.980828   92.1989  339.1860   81.4012  20210425  14.5  4.0  C/2016 T2 (Matheny)                                      MPC107685
    CK16T030  2017 09  6.4163  2.646504  0.979743  194.6233  271.7224   22.6846  20210425  10.5  4.0  C/2016 T3 (PANSTARRS)                                    MPC110082
    CK16U010  2017 01 13.7531  0.323762  1.000405  162.8126   61.5747   46.2810  20210425  17.0  4.0  C/2016 U1 (NEOWISE)                                      MPC103847
    CK16V18Z  2017 03  5.2882  0.914336  0.994347   36.3986   98.9212   23.9813  20210425  19.5  4.0  C/2016 VZ18 (PANSTARRS)                                  MPC106345
    PK16W48M  2017 02 23.5872  1.765401  0.783787   36.0869   59.9055  117.4640  20210425  15.0  4.0  P/2016 WM48 (Lemmon)                                     MPC106345
    CK16X010  2019 04 28.3672  7.561874  0.994006  224.4916  256.4014   26.4529  20210425   6.0  4.0  C/2016 X1 (Lemmon)                                       MPC119995
    CK17A010  2017 05 16.0695  2.289587  0.969818    1.9971  121.0423   49.7936  20210425  13.0  4.0  C/2017 A1 (PANSTARRS)                                    MPC108594
    CK17A030  2017 01 30.9181  3.844603  0.911466  303.9817   97.8909   98.5251  20210425   9.5  4.0  C/2017 A3 (Elenin)                                       MPC108594
    CK17A05B  2018 02 15.1378  9.211339  0.995978   78.3208   42.6330   32.4440  20210425   5.5  4.0  C/2017 AB5 (PANSTARRS)                                   MPC114598
    CK17B030  2019 02  2.5266  3.923665  1.001483  284.8005    2.1789   54.1670  20210425   6.0  4.0  C/2017 B3 (LINEAR)                                       MPC119995
    PK17B040  2017 01  5.8178  2.800894  0.364952   11.0197  121.4578   20.0584            14.5  4.0  P/2017 B4 (PANSTARRS)                                    MPC103847
    CK17C010  2017 01 18.4996  1.498133  0.927179  110.0461  357.5628   65.7639  20210425  18.0  4.0  C/2017 C1 (NEOWISE)                                      MPC104793
    CK17C020  2017 01 21.4031  2.421922  0.974736  138.5689  249.7584  118.5852  20210425  14.0  4.0  C/2017 C2 (PANSTARRS)                                    MPC107685
    PK17D010  2016 06 23.6032  2.722748  0.436253    8.0272   82.1803   20.7559  20210425  14.0  4.0  P/2017 D1 (Fuls)                                         MPC104793
    CK17D020  2017 07 14.8974  2.491830  0.999569  334.5541  330.9493   31.2580  20210425  11.0  4.0  C/2017 D2 (Barros)                                       MPC112391
    CK17D030  2017 04 27.4333  4.971570  1.002231  340.8556  186.6889  125.5874  20210425   8.0  4.0  C/2017 D3 (ATLAS)                                        MPC114598
    PK17D040  2016 09  4.9479  2.810246  0.628309  212.2619  264.9375   10.5314  20210425  13.0  4.0  P/2017 D4 (PANSTARRS)                                    MPC110495
    CK17D050  2017 01  9.6570  2.157945  0.981092  287.6949   92.7040  131.0447  20210425  16.0  4.0  C/2017 D5 (PANSTARRS)                                    MPC104794
    CK17E010  2017 04 10.6095  0.903152  1.003149  152.7215  142.5633   14.5725  20210425  14.0  4.0  C/2017 E1 (Borisov)                                      MPC106346
    CK17E020  2016 05 11.6912  2.349052  0.890866   89.3454   11.6314   79.0937  20210425  11.5  4.0  C/2017 E2 (Tsuchinshan)                                  MPC109144
    CK17E030  2017 06  7.8186  5.938383  1.006447  334.5093  220.7577   70.6447  20210425   6.5  4.0  C/2017 E3 (PANSTARRS)                                    MPC115882
    CK17E040  2017 04 23.5905  0.491014  1.001496   87.0650  222.9530   88.0479  20210425  17.0  4.0  C/2017 E4 (Lovejoy)                                      MPC105239
    CK17E050  2016 06 10.9144  1.787711  0.995536  306.9498  206.3917  122.6702  20210425  13.0  4.0  C/2017 E5 (Lemmon)                                       MPC105239
    CK17F010  2017 11 29.8759  4.496166  1.003112   64.7448  158.7882  146.4610  20210425  10.5  4.0  C/2017 F1 (Lemmon)                                       MPC111769
    CK17F020  2017 11 27.0506  6.931354  1.003196  135.0158   38.6795   42.5295  20210425   7.5  4.0  C/2017 F2 (PANSTARRS)                                    MPC114598
    PK17G010  2016 04 27.1071  2.528537  0.652920  224.5109  249.6312    4.7751  20210425  13.5  4.0  P/2017 G1 (PANSTARRS)                                    MPC104794
    PK17G020  2017 06 11.0395  2.838760  0.647981  105.5400   79.7883   47.9464  20210425  13.0  4.0  P/2017 G2 (PANSTARRS)                                    MPC108595
    CK17G030  2017 04 15.9868  2.587558  0.991786   73.1087  279.4738  159.0509  20210425  14.0  4.0  C/2017 G3 (PANSTARRS)                                    MPC109144
    CK17K010  2018 03 17.7230  7.289546  1.002710    4.4214  225.6787  154.0165  20210425   7.0  4.0  C/2017 K1 (PANSTARRS)                                    MPC115882
    CK17K020  2022 12 19.7648  1.797705  1.000545  236.1863   88.2467   87.5513  20210425   1.5  4.0  C/2017 K2 (PANSTARRS)                                    MPC119995
    PK17K030  2017 05 31.0697  2.343179  0.580302  253.5023  354.2806    4.2731  20210425  14.5  4.0  P/2017 K3 (Gasparovic)                                   MPC106346
    CK17K040  2018 01  8.5239  2.652623  0.907152   15.2644  298.8725   16.6793  20210425  10.0  4.0  C/2017 K4 (ATLAS)                                        MPC114598
    CK17K050  2020 03 26.7008  7.680698  1.006188  172.0071  102.3718   82.2342  20210425   5.0  4.0  C/2017 K5 (PANSTARRS)                                    MPC119995
    CK17K060  2018 01  3.5062  1.996948  0.998163  303.7520   85.0163   57.2433  20210425  11.0  4.0  C/2017 K6 (Jacques)                                      MPC114599
